GALAXY 16               
1 29236C 06023A   21301.00000000 -.00000037  00000-0  00000-0 0  3018
2 29236   0.0170 264.7396 0002726 319.5517  73.3034  1.00272197    17
GALAXY 16           [PM]
1 29236C 06023A   21304.93410880 -.00000037  00000-0  00000-0 0  3047
2 29236   0.0290 267.3277 0002375 318.4070  52.0261  1.00273041    14
GALAXY 16               
1 29236C 06023A   21305.00000000 -.00000037  00000-0  00000-0 0  3056
2 29236   0.0287 267.3833 0002390 318.1762  75.9874  1.00273026    17
GALAXY 17               
1 31307C 07016B   21301.00000000 -.00000085  00000-0  00000-0 0  3016
2 31307   0.0146 279.8635 0003683 313.0004  72.7356  1.00271039    12
GALAXY 17           [PM]
1 31307C 07016B   21304.81927083 -.00000080  00000-0  00000-0 0  3045
2 31307   0.0084 270.4930 0003029 310.2977  23.5149  1.00270396    19
GALAXY 17               
1 31307C 07016B   21305.00000000 -.00000085  00000-0  00000-0 0  3054
2 31307   0.0082 271.3420 0003058 309.0440  89.1592  1.00270236    17
GALAXY 17           [PM]
1 31307C 07016B   21307.94971065 -.00000236  00000-0  00000-0 0  3077
2 31307   0.0041 297.5843 0002938 278.6559  78.0928  1.00272479    10
INTELSAT 11             
1 32253C 07044B   21301.00000000 -.00000178  00000-0  00000-0 0  3011
2 32253   0.0121 266.0162 0002261 339.4499 108.1423  1.00273262    19
INTELSAT 11         [PM]
1 32253C 07044B   21302.34927083 -.00000177  00000-0  00000-0 0  3028
2 32253   0.0094 257.0106 0002270 353.1417 230.5322  1.00272423    15
INTELSAT 11             
1 32253C 07044B   21305.00000000 -.00000177  00000-0  00000-0 0  3058
2 32253   0.0056 252.0293 0002068 359.1952 106.3405  1.00270701    19
HORIZONS 2              
1 32388C 07063B   21301.00000000 -.00000093  00000-0  00000-0 0  3017
2 32388   0.0117 291.6044 0003026 312.9600 236.8874  1.00272808    10
HORIZONS 2              
1 32388C 07063B   21305.00000000 -.00000123  00000-0  00000-0 0  3059
2 32388   0.0045 279.3639 0002800 329.2915 236.7471  1.00270675    14
HORIZONS 2          [PM]
1 32388C 07063B   21305.93054398 -.00000093  00000-0  00000-0 0  3056
2 32388   0.0250 284.9504 0002691 325.2725 211.0888  1.00271106    16
GALAXY 18               
1 32951C 08024A   21301.00000000  .00000115  00000-0  00000-0 0  3015
2 32951   0.0109 263.8799 0003253 321.5291  48.1897  1.00272065    13
GALAXY 18           [PM]
1 32951C 08024A   21304.56041667  .00000115  00000-0  00000-0 0  3046
2 32951   0.0062 248.1049 0003025 338.7658 252.0006  1.00269386    19
GALAXY 18               
1 32951C 08024A   21305.00000000  .00000127  00000-0  00000-0 0  3056
2 32951   0.0053 249.0573 0002931 336.2232  52.2718  1.00269469    19
INTELSAT 25             
1 33153C 08034A   21301.00000000 -.00000133  00000-0  00000-0 0  3012
2 33153   0.0171 240.9865 0002965 332.7163 151.3947  1.00272498    11
INTELSAT 25         [PM]
1 33153C 08034A   21303.42134259 -.00000133  00000-0  00000-0 0  3036
2 33153   0.0156 229.3307 0002709 350.8229 299.0223  1.00272948    13
INTELSAT 25             
1 33153C 08034A   21305.00000000 -.00000133  00000-0  00000-0 0  3050
2 33153   0.0133 228.0177 0002640 350.8756 150.1642  1.00272026    17
GALAXY 19               
1 33376C 08045A   21301.00000000 -.00000121  00000-0  00000-0 0  3018
2 33376   0.0005 202.6600 0003174  20.9119  76.0335  1.00271506    19
GALAXY 19           [PM]
1 33376C 08045A   21304.92916667 -.00000049  00000-0  00000-0 0  3049
2 33376   0.0123 258.7680 0002889 326.2405  52.9704  1.00271210    17
GALAXY 19               
1 33376C 08045A   21305.00000000 -.00000049  00000-0  00000-0 0  3055
2 33376   0.0122 258.8029 0002905 326.0700  78.6759  1.00271194    15
INTELSAT 14             
1 36097C 09064A   21301.00000000 -.00000183  00000-0  00000-0 0  3011
2 36097   0.0152 265.5311 0002552 310.6010 135.4679  1.00273174    14
INTELSAT 14             
1 36097C 09064A   21305.00000000 -.00000182  00000-0  00000-0 0  3058
2 36097   0.0089 253.5398 0002287 324.2295 137.7870  1.00270604    19
INTELSAT 14         [PM]
1 36097C 09064A   21307.88601852 -.00000279  00000-0  00000-0 0  3077
2 36097   0.0006 270.1485 0002228 299.7676 107.4376  1.00272803    12
INTELSAT 15             
1 36106C 09067A   21301.00000000 -.00000096  00000-0  00000-0 0  3018
2 36106   0.0171 123.7446 0002598 107.8380 250.1699  1.00272177    15
INTELSAT 15             
1 36106C 09067A   21305.00000000 -.00000058  00000-0  00000-0 0  3054
2 36106   0.0085 155.6690 0002297  80.2446 249.7897  1.00270759    15
INTELSAT 15         [PM]
1 36106C 09067A   21305.94158565 -.00000096  00000-0  00000-0 0  3059
2 36106   0.0262 286.3724 0002199 306.7569 232.4706  1.00270797    15
INTELSAT 16             
1 36397C 10006A   21301.00000000 -.00000212  00000-0  00000-0 0  3015
2 36397   0.0001 286.8436 0002345 299.0595  94.4926  1.00273144    18
INTELSAT 16             
1 36397C 10006A   21305.00000000 -.00000158  00000-0  00000-0 0  3052
2 36397   0.0025 172.2150 0002059  55.0977  97.0403  1.00270768    19
INTELSAT 16         [PM]
1 36397C 10006A   21305.39317130 -.00000155  00000-0  00000-0 0  3056
2 36397   0.0264 279.8104 0002013 309.3035 237.1667  1.00270497    15
INTELSAT 17             
1 37238C 10065B   21301.00000000  .00000088  00000-0  00000-0 0  3015
2 37238   0.0259 155.0234 0002854  74.9307 232.6409  1.00273266    14
INTELSAT 17         [PM]
1 37238C 10065B   21304.97555556  .00000088  00000-0  00000-0 0  3048
2 37238   0.0183 209.2974 0002743  23.9165 224.4960  1.00274249    19
INTELSAT 17             
1 37238C 10065B   21305.00000000  .00000088  00000-0  00000-0 0  3053
2 37238   0.0182 209.4672 0002741  23.9338 233.1334  1.00274250    19
INTELSAT NEW DAWN       
1 37392C 11016A   21301.00000000  .00000246  00000-0  00000-0 0  3019
2 37392   0.0164 180.9795 0001305  38.7895 209.6408  1.00271809    13
INTELSAT NEW DAWN   [PM]
1 37392C 11016A   21301.75000000  .00000246  00000-0  00000-0 0  3011
2 37392   0.0176 176.6142 0001242  43.3397 120.1974  1.00271785    11
INTELSAT NEW DAWN       
1 37392C 11016A   21305.00000000  .00000246  00000-0  00000-0 0  3057
2 37392   0.0217 165.1058 0000981  17.6962 250.5419  1.00264115    18
INTELSAT 18             
1 37834C 11056A   21301.00000000  .00000143  00000-0  00000-0 0  3010
2 37834   0.0250 351.0105 0002140 235.6691 349.9296  1.00270480    13
INTELSAT 18         [PM]
1 37834C 11056A   21304.67189815  .00000143  00000-0  00000-0 0  3041
2 37834   0.0259 314.2032 0002002 279.3927 228.5075  1.00272716    17
INTELSAT 18             
1 37834C 11056A   21305.00000000  .00000143  00000-0  00000-0 0  3058
2 37834   0.0256 314.6529 0001878 278.2829 347.6101  1.00272776    17
INTELSAT 22         [PM]
1 38098C 12011A   21300.59855324  .00000014  00000-0  00000-0 0  3001
2 38098   0.0000 242.2236 0003310 341.2285 100.3223  1.00272163    17
INTELSAT 22             
1 38098C 12011A   21301.00000000  .00000038  00000-0  00000-0 0  3018
2 38098   0.0000 232.0476 0003325 352.8398 243.8049  1.00272233    16
INTELSAT 22             
1 38098C 12011A   21305.00000000  .00000189  00000-0  00000-0 0  3053
2 38098   0.0013 196.2198 0003053  29.4070 247.0175  1.00271245    12
INTELSAT 19             
1 38356C 12030A   21301.00000000 -.00000052  00000-0  00000-0 0  3013
2 38356   0.0270  82.0286 0002951 140.2580 340.3148  1.00270663    18
INTELSAT 19         [PM]
1 38356C 12030A   21304.19942130  .00000034  00000-0  00000-0 0  3047
2 38356   0.0242 262.9923 0002868 318.2888  56.2707  1.00270732    10
INTELSAT 19             
1 38356C 12030A   21305.00000000 -.00000038  00000-0  00000-0 0  3055
2 38356   0.0232 268.0936 0002802 316.7833 341.6708  1.00270783    19
INTELSAT 20             
1 38740C 12043A   21301.00000000  .00000065  00000-0  00000-0 0  3017
2 38740   0.0123 187.7158 0002535   4.5042 272.8805  1.00270931    13
INTELSAT 20         [PM]
1 38740C 12043A   21301.73472222  .00000066  00000-0  00000-0 0  3017
2 38740   0.0155 179.3492 0002346   7.3458 183.6256  1.00271996    19
INTELSAT 20             
1 38740C 12043A   21305.00000000  .00000065  00000-0  00000-0 0  3055
2 38740   0.0106 207.7891 0002407 337.1410 284.1169  1.00269960    12
INTELSAT 21             
1 38749C 12045A   21301.00000000 -.00000195  00000-0  00000-0 0  3013
2 38749   0.0141 270.0769 0002222 305.6328 122.8796  1.00273607    17
INTELSAT 21         [PM]
1 38749C 12045A   21302.61968750 -.00000196  00000-0  00000-0 0  3028
2 38749   0.0114 262.0659 0002105 317.2114 344.0074  1.00272541    11
INTELSAT 21             
1 38749C 12045A   21305.00000000 -.00000197  00000-0  00000-0 0  3053
2 38749   0.0075 258.6476 0001953 317.9334 125.9688  1.00270854    18
INTELSAT 23             
1 38867C 12057A   21301.00000000 -.00000195  00000-0  00000-0 0  3017
2 38867   0.0111 227.6570 0002079 354.6863 121.2467  1.00271123    10
INTELSAT 23             
1 38867C 12057A   21305.00000000 -.00000195  00000-0  00000-0 0  3055
2 38867   0.0104 199.4097 0001599  17.9474 130.1736  1.00271989    13
INTELSAT 23         [PM]
1 38867C 12057A   21307.30496528 -.00000321  00000-0  00000-0 0  3077
2 38867   0.0112 246.1163 0001559 324.0932 249.3821  1.00271175    18
INTELSAT 30         [PM]
1 40271C 14062A   21300.48606482 -.00000062  00000-0  00000-0 0  3006
2 40271   0.0085 259.3402 0001693 200.7076  15.9723  1.00273133    13
INTELSAT 30             
1 40271C 14062A   21301.00000000 -.00000061  00000-0  00000-0 0  3019
2 40271   0.0072 265.2301 0001594 195.4905 200.8262  1.00271058    11
INTELSAT 30             
1 40271C 14062A   21305.00000000 -.00000061  00000-0  00000-0 0  3057
2 40271   0.0136 264.8680 0002089 193.3519 207.2800  1.00269762    13
INTELSAT 34             
1 40874C 15039A   21301.00000000 -.00000195  00000-0  00000-0 0  3011
2 40874   0.0218 288.4582 0000734  59.9633 352.6863  1.00269887    17
